{
  "type": "FeatureCollection",
  "features": [
    {
      "type": "Feature",
      "properties": {
        "norad_id": 66601,
        "name": "STARLINK-35978",
        "group": "last-30-days",
        "lat": 21.80821590598436,
        "lon": -128.6895500698594,
        "alt_km": 409.4562903663473,
        "timestamp": "2025-12-10T11:33:52.172718+00:00",
        "meta_object_name": "STARLINK-35978",
        "meta_object_id": "2025-270P",
        "meta_epoch": "2025-12-10T04:00:01.998720",
        "meta_mean_motion": 15.52906495,
        "meta_eccentricity": 0.0001709,
        "meta_inclination": 42.9997,
        "meta_ra_of_asc_node": 207.729,
        "meta_arg_of_pericenter": 269.0619,
        "meta_mean_anomaly": 160.7399,
        "meta_ephemeris_type": 0,
        "meta_classification_type": "U",
        "meta_norad_cat_id": 66601,
        "meta_element_set_no": 999,
        "meta_rev_at_epoch": 382,
        "meta_bstar": -0.033808,
        "meta_mean_motion_dot": -0.01935283,
        "meta_mean_motion_ddot": 0,
        "tle_line1": "1 66601U 25270P   25344.16668980 -.01935283  00000+0 -33808-1 0  9992",
        "tle_line2": "2 66601  42.9997 207.7290 0001709 269.0619 160.7399 15.52906495  3822"
      },
      "geometry": {
        "type": "Point",
        "coordinates": [
          -128.6895500698594,
          21.80821590598436
        ]
      }
    },
    {
      "type": "Feature",
      "properties": {
        "norad_id": 66602,
        "name": "STARLINK-36050",
        "group": "last-30-days",
        "lat": 22.987302957876857,
        "lon": -127.0436507097488,
        "alt_km": 409.3583086794697,
        "timestamp": "2025-12-10T11:33:52.172730+00:00",
        "meta_object_name": "STARLINK-36050",
        "meta_object_id": "2025-270Q",
        "meta_epoch": "2025-12-10T04:00:01.998720",
        "meta_mean_motion": 15.5291291,
        "meta_eccentricity": 0.0001619,
        "meta_inclination": 42.9994,
        "meta_ra_of_asc_node": 207.7239,
        "meta_arg_of_pericenter": 268.3697,
        "meta_mean_anomaly": 163.3709,
        "meta_ephemeris_type": 0,
        "meta_classification_type": "U",
        "meta_norad_cat_id": 66602,
        "meta_element_set_no": 999,
        "meta_rev_at_epoch": 388,
        "meta_bstar": -0.034599,
        "meta_mean_motion_dot": -0.01976228,
        "meta_mean_motion_ddot": 0,
        "tle_line1": "1 66602U 25270Q   25344.16668980 -.01976228  00000+0 -34599-1 0  9995",
        "tle_line2": "2 66602  42.9994 207.7239 0001619 268.3697 163.3709 15.52912910  3880"
      },
      "geometry": {
        "type": "Point",
        "coordinates": [
          -127.0436507097488,
          22.987302957876857
        ]
      }
    },
    {
      "type": "Feature",
      "properties": {
        "norad_id": 66603,
        "name": "STARLINK-36048",
        "group": "last-30-days",
        "lat": 24.137567237134046,
        "lon": -125.38625848484118,
        "alt_km": 409.1235162787998,
        "timestamp": "2025-12-10T11:33:52.172741+00:00",
        "meta_object_name": "STARLINK-36048",
        "meta_object_id": "2025-270R",
        "meta_epoch": "2025-12-10T04:00:01.998720",
        "meta_mean_motion": 15.528986,
        "meta_eccentricity": 0.0001593,
        "meta_inclination": 42.9999,
        "meta_ra_of_asc_node": 207.7191,
        "meta_arg_of_pericenter": 266.5653,
        "meta_mean_anomaly": 167.0722,
        "meta_ephemeris_type": 0,
        "meta_classification_type": "U",
        "meta_norad_cat_id": 66603,
        "meta_element_set_no": 999,
        "meta_rev_at_epoch": 388,
        "meta_bstar": -0.033356,
        "meta_mean_motion_dot": -0.01877971,
        "meta_mean_motion_ddot": 0,
        "tle_line1": "1 66603U 25270R   25344.16668980 -.01877971  00000+0 -33356-1 0  9991",
        "tle_line2": "2 66603  42.9999 207.7191 0001593 266.5653 167.0722 15.52898600  3881"
      },
      "geometry": {
        "type": "Point",
        "coordinates": [
          -125.38625848484118,
          24.137567237134046
        ]
      }
    },
    {
      "type": "Feature",
      "properties": {
        "norad_id": 66604,
        "name": "STARLINK-35977",
        "group": "last-30-days",
        "lat": 25.272657598469824,
        "lon": -123.69364310311676,
        "alt_km": 408.9223875459602,
        "timestamp": "2025-12-10T11:33:52.172751+00:00",
        "meta_object_name": "STARLINK-35977",
        "meta_object_id": "2025-270S",
        "meta_epoch": "2025-12-10T04:00:01.998720",
        "meta_mean_motion": 15.5289835,
        "meta_eccentricity": 0.0001483,
        "meta_inclination": 42.9996,
        "meta_ra_of_asc_node": 207.7139,
        "meta_arg_of_pericenter": 266.7416,
        "meta_mean_anomaly": 168.8111,
        "meta_ephemeris_type": 0,
        "meta_classification_type": "U",
        "meta_norad_cat_id": 66604,
        "meta_element_set_no": 999,
        "meta_rev_at_epoch": 398,
        "meta_bstar": -0.033372,
        "meta_mean_motion_dot": -0.01878689,
        "meta_mean_motion_ddot": 0,
        "tle_line1": "1 66604U 25270S   25344.16668980 -.01878689  00000+0 -33372-1 0  9997",
        "tle_line2": "2 66604  42.9996 207.7139 0001483 266.7416 168.8111 15.52898350  3982"
      },
      "geometry": {
        "type": "Point",
        "coordinates": [
          -123.69364310311676,
          25.272657598469824
        ]
      }
    },
    {
      "type": "Feature",
      "properties": {
        "norad_id": 66605,
        "name": "STARLINK-36052",
        "group": "last-30-days",
        "lat": 26.39091724970209,
        "lon": -121.96426058027937,
        "alt_km": 408.7682144295941,
        "timestamp": "2025-12-10T11:33:52.172760+00:00",
        "meta_object_name": "STARLINK-36052",
        "meta_object_id": "2025-270T",
        "meta_epoch": "2025-12-10T04:00:01.998720",
        "meta_mean_motion": 15.52900429,
        "meta_eccentricity": 0.0001584,
        "meta_inclination": 42.9998,
        "meta_ra_of_asc_node": 207.7096,
        "meta_arg_of_pericenter": 270.5781,
        "meta_mean_anomaly": 166.8935,
        "meta_ephemeris_type": 0,
        "meta_classification_type": "U",
        "meta_norad_cat_id": 66605,
        "meta_element_set_no": 999,
        "meta_rev_at_epoch": 398,
        "meta_bstar": -0.03359,
        "meta_mean_motion_dot": -0.01889673,
        "meta_mean_motion_ddot": 0,
        "tle_line1": "1 66605U 25270T   25344.16668980 -.01889673  00000+0 -33590-1 0  9995",
        "tle_line2": "2 66605  42.9998 207.7096 0001584 270.5781 166.8935 15.52900429  3980"
      },
      "geometry": {
        "type": "Point",
        "coordinates": [
          -121.96426058027937,
          26.39091724970209
        ]
      }
    },
    {
      "type": "Feature",
      "properties": {
        "norad_id": 66606,
        "name": "STARLINK-36063",
        "group": "last-30-days",
        "lat": 28.56281064211228,
        "lon": -118.40273139735379,
        "alt_km": 408.45008182759193,
        "timestamp": "2025-12-10T11:33:52.172770+00:00",
        "meta_object_name": "STARLINK-36063",
        "meta_object_id": "2025-270U",
        "meta_epoch": "2025-12-10T04:00:01.998720",
        "meta_mean_motion": 15.52900837,
        "meta_eccentricity": 0.000152,
        "meta_inclination": 42.9998,
        "meta_ra_of_asc_node": 207.6997,
        "meta_arg_of_pericenter": 268.6174,
        "meta_mean_anomaly": 172.6871,
        "meta_ephemeris_type": 0,
        "meta_classification_type": "U",
        "meta_norad_cat_id": 66606,
        "meta_element_set_no": 999,
        "meta_rev_at_epoch": 398,
        "meta_bstar": -0.033328,
        "meta_mean_motion_dot": -0.01876642,
        "meta_mean_motion_ddot": 0,
        "tle_line1": "1 66606U 25270U   25344.16668980 -.01876642  00000+0 -33328-1 0  9997",
        "tle_line2": "2 66606  42.9998 207.6997 0001520 268.6174 172.6871 15.52900837  3981"
      },
      "geometry": {
        "type": "Point",
        "coordinates": [
          -118.40273139735379,
          28.56281064211228
        ]
      }
    },
    {
      "type": "Feature",
      "properties": {
        "norad_id": 66607,
        "name": "STARLINK-35993",
        "group": "last-30-days",
        "lat": 27.485814061173524,
        "lon": -120.20432984795836,
        "alt_km": 408.68721059286054,
        "timestamp": "2025-12-10T11:33:52.172780+00:00",
        "meta_object_name": "STARLINK-35993",
        "meta_object_id": "2025-270V",
        "meta_epoch": "2025-12-10T04:00:01.998720",
        "meta_mean_motion": 15.52901637,
        "meta_eccentricity": 0.0001634,
        "meta_inclination": 42.9994,
        "meta_ra_of_asc_node": 207.7049,
        "meta_arg_of_pericenter": 269.1651,
        "meta_mean_anomaly": 170.2239,
        "meta_ephemeris_type": 0,
        "meta_classification_type": "U",
        "meta_norad_cat_id": 66607,
        "meta_element_set_no": 999,
        "meta_rev_at_epoch": 388,
        "meta_bstar": -0.033759,
        "meta_mean_motion_dot": -0.01932404,
        "meta_mean_motion_ddot": 0,
        "tle_line1": "1 66607U 25270V   25344.16668980 -.01932404  00000+0 -33759-1 0  9995",
        "tle_line2": "2 66607  42.9994 207.7049 0001634 269.1651 170.2239 15.52901637  3889"
      },
      "geometry": {
        "type": "Point",
        "coordinates": [
          -120.20432984795836,
          27.485814061173524
        ]
      }
    }
  ]
}